[
    {
        "Altitude(m)": 705270.0246396858,
        "Argument of Periapsis(deg)": 0.0022780242373254137,
        "Eccentricity": 0.0,
        "Inclination(deg)": 45.0,
        "Latitude(deg)": -10.002293393162452,
        "Longitude(deg)": 84.76656317210049,
        "Mean Anomaly(deg)": -14.056956670503943,
        "RAAN(deg)": 194.9978496117084,
        "Satellite Name": "Constellation 1 879",
        "Satellite Number": 879,
        "Semi-Major Axis(m)": 7083131.272910544,
        "Time(s)": 38
    },
    {
        "Altitude(m)": 705259.9864856399,
        "Argument of Periapsis(deg)": 0.002337972243570819,
        "Eccentricity": 0.0,
        "Inclination(deg)": 45.0,
        "Latitude(deg)": -9.959776303284578,
        "Longitude(deg)": 84.8066106350493,
        "Mean Anomaly(deg)": -13.996255530253956,
        "RAAN(deg)": 194.9977930225428,
        "Satellite Name": "Constellation 1 879",
        "Satellite Number": 879,
        "Semi-Major Axis(m)": 7083131.272910544,
        "Time(s)": 39
    },
    {
        "Altitude(m)": 705249.9650593974,
        "Argument of Periapsis(deg)": 0.0023979202498162246,
        "Eccentricity": 0.0,
        "Inclination(deg)": 45.0,
        "Latitude(deg)": -9.917253184798039,
        "Longitude(deg)": 84.84664676542458,
        "Mean Anomaly(deg)": -13.935554390004121,
        "RAAN(deg)": 194.99773643337724,
        "Satellite Name": "Constellation 1 879",
        "Satellite Number": 879,
        "Semi-Major Axis(m)": 7083131.272910544,
        "Time(s)": 40
    },
    {
        "Altitude(m)": 705239.9603878937,
        "Argument of Periapsis(deg)": 0.00245786825606163,
        "Eccentricity": 0.0,
        "Inclination(deg)": 45.0,
        "Latitude(deg)": -9.874724065033355,
        "Longitude(deg)": 84.88667161421921,
        "Mean Anomaly(deg)": -13.874853249754155,
        "RAAN(deg)": 194.99767984421166,
        "Satellite Name": "Constellation 1 879",
        "Satellite Number": 879,
        "Semi-Major Axis(m)": 7083131.272910544,
        "Time(s)": 41
    },
    {
        "Altitude(m)": 705229.9724979877,
        "Argument of Periapsis(deg)": 0.002517816262307036,
        "Eccentricity": 0.0,
        "Inclination(deg)": 45.0,
        "Latitude(deg)": -9.832188971299992,
        "Longitude(deg)": 84.92668523240317,
        "Mean Anomaly(deg)": -13.814152109504295,
        "RAAN(deg)": 194.9976232550461,
        "Satellite Name": "Constellation 1 879",
        "Satellite Number": 879,
        "Semi-Major Axis(m)": 7083131.272910544,
        "Time(s)": 42
    },
    {
        "Altitude(m)": 705220.0014164643,
        "Argument of Periapsis(deg)": 0.0025777642685524413,
        "Eccentricity": 0.0,
        "Inclination(deg)": 45.0,
        "Latitude(deg)": -9.789647930885927,
        "Longitude(deg)": 84.9666876709242,
        "Mean Anomaly(deg)": -13.753450969254333,
        "RAAN(deg)": 194.9975666658805,
        "Satellite Name": "Constellation 1 879",
        "Satellite Number": 879,
        "Semi-Major Axis(m)": 7083131.272910544,
        "Time(s)": 43
    },
    {
        "Altitude(m)": 705210.0471700184,
        "Argument of Periapsis(deg)": 0.002637712274797847,
        "Eccentricity": 0.0,
        "Inclination(deg)": 45.0,
        "Latitude(deg)": -9.747100971058275,
        "Longitude(deg)": 85.00667881261028,
        "Mean Anomaly(deg)": -13.692749829004471,
        "RAAN(deg)": 194.99751007671495,
        "Satellite Name": "Constellation 1 879",
        "Satellite Number": 879,
        "Semi-Major Axis(m)": 7083131.272910544,
        "Time(s)": 44
    },
    {
        "Altitude(m)": 705200.1097852752,
        "Argument of Periapsis(deg)": 0.0026976602810432526,
        "Eccentricity": 0.0,
        "Inclination(deg)": 45.0,
        "Latitude(deg)": -9.704548119062714,
        "Longitude(deg)": 85.04665904455828,
        "Mean Anomaly(deg)": -13.632048688754509,
        "RAAN(deg)": 194.99745348754936,
        "Satellite Name": "Constellation 1 879",
        "Satellite Number": 879,
        "Semi-Major Axis(m)": 7083131.272910544,
        "Time(s)": 45
    },
    {
        "Altitude(m)": 705190.1892887652,
        "Argument of Periapsis(deg)": 0.0027576082872886585,
        "Eccentricity": 0.0,
        "Inclination(deg)": 45.0,
        "Latitude(deg)": -9.661989402124462,
        "Longitude(deg)": 85.0866282495515,
        "Mean Anomaly(deg)": -13.57134754850475,
        "RAAN(deg)": 194.9973968983838,
        "Satellite Name": "Constellation 1 879",
        "Satellite Number": 879,
        "Semi-Major Axis(m)": 7083131.272910544,
        "Time(s)": 46
    },
    {
        "Altitude(m)": 705180.2857069487,
        "Argument of Periapsis(deg)": 0.0028175562935340644,
        "Eccentricity": 0.0,
        "Inclination(deg)": 45.0,
        "Latitude(deg)": -9.61942484744733,
        "Longitude(deg)": 85.12658647844846,
        "Mean Anomaly(deg)": -13.510646408254786,
        "RAAN(deg)": 194.99734030921826,
        "Satellite Name": "Constellation 1 879",
        "Satellite Number": 879,
        "Semi-Major Axis(m)": 7083131.272910544,
        "Time(s)": 47
    },
    {
        "Altitude(m)": 705170.3990662018,
        "Argument of Periapsis(deg)": 0.00287750429977947,
        "Eccentricity": 0.0,
        "Inclination(deg)": 45.0,
        "Latitude(deg)": -9.576854482214868,
        "Longitude(deg)": 85.16653378208518,
        "Mean Anomaly(deg)": -13.449945268004823,
        "RAAN(deg)": 194.99728372005265,
        "Satellite Name": "Constellation 1 879",
        "Satellite Number": 879,
        "Semi-Major Axis(m)": 7083131.272910544,
        "Time(s)": 48
    },
    {
        "Altitude(m)": 705160.5293928212,
        "Argument of Periapsis(deg)": 0.002937452306024875,
        "Eccentricity": 0.0,
        "Inclination(deg)": 45.0,
        "Latitude(deg)": -9.534278333589857,
        "Longitude(deg)": 85.20647021127571,
        "Mean Anomaly(deg)": -13.389244127754989,
        "RAAN(deg)": 194.9972271308871,
        "Satellite Name": "Constellation 1 879",
        "Satellite Number": 879,
        "Semi-Major Axis(m)": 7083131.272910544,
        "Time(s)": 49
    },
    {
        "Altitude(m)": 705150.6767130173,
        "Argument of Periapsis(deg)": 0.0029974003122702807,
        "Eccentricity": 0.0,
        "Inclination(deg)": 45.0,
        "Latitude(deg)": -9.491696428714384,
        "Longitude(deg)": 85.24639581681227,
        "Mean Anomaly(deg)": -13.328542987505102,
        "RAAN(deg)": 194.99717054172152,
        "Satellite Name": "Constellation 1 879",
        "Satellite Number": 879,
        "Semi-Major Axis(m)": 7083131.272910544,
        "Time(s)": 50
    },
    {
        "Altitude(m)": 705140.8410529215,
        "Argument of Periapsis(deg)": 0.0030573483185156866,
        "Eccentricity": 0.0,
        "Inclination(deg)": 45.0,
        "Latitude(deg)": -9.449108794710138,
        "Longitude(deg)": 85.28631064946521,
        "Mean Anomaly(deg)": -13.267841847255166,
        "RAAN(deg)": 194.99711395255596,
        "Satellite Name": "Constellation 1 879",
        "Satellite Number": 879,
        "Semi-Major Axis(m)": 7083131.272910544,
        "Time(s)": 51
    },
    {
        "Altitude(m)": 705131.0224385919,
        "Argument of Periapsis(deg)": 0.003117296324761092,
        "Eccentricity": 0.0,
        "Inclination(deg)": 45.0,
        "Latitude(deg)": -9.406515458678681,
        "Longitude(deg)": 85.32621459188583,
        "Mean Anomaly(deg)": -13.207140707005278,
        "RAAN(deg)": 194.99705736339035,
        "Satellite Name": "Constellation 1 879",
        "Satellite Number": 879,
        "Semi-Major Axis(m)": 7083131.272910544,
        "Time(s)": 52
    },
    {
        "Altitude(m)": 705121.2208959976,
        "Argument of Periapsis(deg)": 0.0031772443310064975,
        "Eccentricity": 0.0,
        "Inclination(deg)": 45.0,
        "Latitude(deg)": -9.363916447700992,
        "Longitude(deg)": 85.36610803099504,
        "Mean Anomaly(deg)": -13.146439566755443,
        "RAAN(deg)": 194.9970007742248,
        "Satellite Name": "Constellation 1 879",
        "Satellite Number": 879,
        "Semi-Major Axis(m)": 7083131.272910544,
        "Time(s)": 53
    },
    {
        "Altitude(m)": 705111.436451019,
        "Argument of Periapsis(deg)": 0.0032371923372519038,
        "Eccentricity": 0.0,
        "Inclination(deg)": 45.0,
        "Latitude(deg)": -9.321311788838031,
        "Longitude(deg)": 85.40599084940096,
        "Mean Anomaly(deg)": -13.08573842650548,
        "RAAN(deg)": 194.99694418505925,
        "Satellite Name": "Constellation 1 879",
        "Satellite Number": 879,
        "Semi-Major Axis(m)": 7083131.272910544,
        "Time(s)": 54
    },
    {
        "Altitude(m)": 705101.6691294654,
        "Argument of Periapsis(deg)": 0.0032971403434973088,
        "Eccentricity": 0.0,
        "Inclination(deg)": 45.0,
        "Latitude(deg)": -9.278701509130789,
        "Longitude(deg)": 85.44586309778727,
        "Mean Anomaly(deg)": -13.025037286255492,
        "RAAN(deg)": 194.99688759589367,
        "Satellite Name": "Constellation 1 879",
        "Satellite Number": 879,
        "Semi-Major Axis(m)": 7083131.272910544,
        "Time(s)": 55
    },
    {
        "Altitude(m)": 705091.9189570656,
        "Argument of Periapsis(deg)": 0.0033570883497427146,
        "Eccentricity": 0.0,
        "Inclination(deg)": 45.0,
        "Latitude(deg)": -9.236085635600432,
        "Longitude(deg)": 85.48572482681584,
        "Mean Anomaly(deg)": -12.964336146005758,
        "RAAN(deg)": 194.99683100672812,
        "Satellite Name": "Constellation 1 879",
        "Satellite Number": 879,
        "Semi-Major Axis(m)": 7083131.272910544,
        "Time(s)": 56
    }
]